{
  "type": "FeatureCollection",
  "features": [
    {
      "type": "Feature",
      "properties": {
        "norad_id": 67109,
        "name": "STARLINK-35764",
        "group": "last-30-days",
        "lat": -38.43597264645642,
        "lon": 139.38130079417223,
        "alt_km": 292.8080191412737,
        "timestamp": "2025-12-21T20:41:06.760528+00:00",
        "meta_object_name": "STARLINK-35764",
        "meta_object_id": "2025-299H",
        "meta_epoch": "2025-12-21T14:00:01.999872",
        "meta_mean_motion": 15.94368762,
        "meta_eccentricity": 0.00023614,
        "meta_inclination": 42.9992,
        "meta_ra_of_asc_node": 262.7226,
        "meta_arg_of_pericenter": 259.6058,
        "meta_mean_anomaly": 185.6843,
        "meta_ephemeris_type": 0,
        "meta_classification_type": "U",
        "meta_norad_cat_id": 67109,
        "meta_element_set_no": 999,
        "meta_rev_at_epoch": 212,
        "meta_bstar": -0.0019929044,
        "meta_mean_motion_dot": -0.00779466,
        "meta_mean_motion_ddot": 0.00019657647,
        "tle_line1": "1 67109U 25299H   25355.58335648 -.00779466  19658-3 -19929-2 0  9997",
        "tle_line2": "2 67109  42.9992 262.7226 0002361 259.6058 185.6843 15.94368762  2125"
      },
      "geometry": {
        "type": "Point",
        "coordinates": [
          139.38130079417223,
          -38.43597264645642
        ]
      }
    },
    {
      "type": "Feature",
      "properties": {
        "norad_id": 67110,
        "name": "STARLINK-35781",
        "group": "last-30-days",
        "lat": -39.60141376957523,
        "lon": 143.58186941918055,
        "alt_km": 292.527023625993,
        "timestamp": "2025-12-21T20:41:06.760539+00:00",
        "meta_object_name": "STARLINK-35781",
        "meta_object_id": "2025-299J",
        "meta_epoch": "2025-12-21T14:00:01.999872",
        "meta_mean_motion": 15.94631521,
        "meta_eccentricity": 0.00024171,
        "meta_inclination": 42.9992,
        "meta_ra_of_asc_node": 262.7142,
        "meta_arg_of_pericenter": 265.6384,
        "meta_mean_anomaly": 182.9465,
        "meta_ephemeris_type": 0,
        "meta_classification_type": "U",
        "meta_norad_cat_id": 67110,
        "meta_element_set_no": 999,
        "meta_rev_at_epoch": 218,
        "meta_bstar": -0.0027104626,
        "meta_mean_motion_dot": -0.01072219,
        "meta_mean_motion_ddot": 0.00035225478,
        "tle_line1": "1 67110U 25299J   25355.58335648 -.01072219  35225-3 -27105-2 0  9995",
        "tle_line2": "2 67110  42.9992 262.7142 0002417 265.6384 182.9465 15.94631521  2187"
      },
      "geometry": {
        "type": "Point",
        "coordinates": [
          143.58186941918055,
          -39.60141376957523
        ]
      }
    },
    {
      "type": "Feature",
      "properties": {
        "norad_id": 67111,
        "name": "STARLINK-35875",
        "group": "last-30-days",
        "lat": -39.06298892357243,
        "lon": 141.55512319545957,
        "alt_km": 293.1394955691667,
        "timestamp": "2025-12-21T20:41:06.760548+00:00",
        "meta_object_name": "STARLINK-35875",
        "meta_object_id": "2025-299K",
        "meta_epoch": "2025-12-21T14:00:01.999872",
        "meta_mean_motion": 15.9450936,
        "meta_eccentricity": 0.00017927,
        "meta_inclination": 42.9994,
        "meta_ra_of_asc_node": 262.7182,
        "meta_arg_of_pericenter": 272.9764,
        "meta_mean_anomaly": 174.0327,
        "meta_ephemeris_type": 0,
        "meta_classification_type": "U",
        "meta_norad_cat_id": 67111,
        "meta_element_set_no": 999,
        "meta_rev_at_epoch": 212,
        "meta_bstar": -0.0023881454,
        "meta_mean_motion_dot": -0.00939555,
        "meta_mean_motion_ddot": 0.00027649083,
        "tle_line1": "1 67111U 25299K   25355.58335648 -.00939555  27649-3 -23881-2 0  9998",
        "tle_line2": "2 67111  42.9994 262.7182 0001792 272.9764 174.0327 15.94509360  2120"
      },
      "geometry": {
        "type": "Point",
        "coordinates": [
          141.55512319545957,
          -39.06298892357243
        ]
      }
    },
    {
      "type": "Feature",
      "properties": {
        "norad_id": 67112,
        "name": "STARLINK-35906",
        "group": "last-30-days",
        "lat": -40.00879260192386,
        "lon": 145.23463350248733,
        "alt_km": 292.8171741584365,
        "timestamp": "2025-12-21T20:41:06.760558+00:00",
        "meta_object_name": "STARLINK-35906",
        "meta_object_id": "2025-299L",
        "meta_epoch": "2025-12-21T14:00:01.999872",
        "meta_mean_motion": 15.94729265,
        "meta_eccentricity": 0.000186,
        "meta_inclination": 42.9993,
        "meta_ra_of_asc_node": 262.711,
        "meta_arg_of_pericenter": 271.3168,
        "meta_mean_anomaly": 178.5367,
        "meta_ephemeris_type": 0,
        "meta_classification_type": "U",
        "meta_norad_cat_id": 67112,
        "meta_element_set_no": 999,
        "meta_rev_at_epoch": 212,
        "meta_bstar": -0.002965913,
        "meta_mean_motion_dot": -0.01178188,
        "meta_mean_motion_ddot": 0.00041884519,
        "tle_line1": "1 67112U 25299L   25355.58335648 -.01178188  41885-3 -29659-2 0  9994",
        "tle_line2": "2 67112  42.9993 262.7110 0001860 271.3168 178.5367 15.94729265  2129"
      },
      "geometry": {
        "type": "Point",
        "coordinates": [
          145.23463350248733,
          -40.00879260192386
        ]
      }
    },
    {
      "type": "Feature",
      "properties": {
        "norad_id": 67113,
        "name": "STARLINK-35789",
        "group": "last-30-days",
        "lat": -40.4242696965179,
        "lon": 147.05234748700377,
        "alt_km": 292.5721936965092,
        "timestamp": "2025-12-21T20:41:06.760567+00:00",
        "meta_object_name": "STARLINK-35789",
        "meta_object_id": "2025-299M",
        "meta_epoch": "2025-12-21T14:00:01.999872",
        "meta_mean_motion": 15.9486519,
        "meta_eccentricity": 0.00020151,
        "meta_inclination": 42.9993,
        "meta_ra_of_asc_node": 262.7076,
        "meta_arg_of_pericenter": 268.1678,
        "meta_mean_anomaly": 183.0517,
        "meta_ephemeris_type": 0,
        "meta_classification_type": "U",
        "meta_norad_cat_id": 67113,
        "meta_element_set_no": 999,
        "meta_rev_at_epoch": 212,
        "meta_bstar": -0.0034050528,
        "meta_mean_motion_dot": -0.01360438,
        "meta_mean_motion_ddot": 0.00054567008,
        "tle_line1": "1 67113U 25299M   25355.58335648 -.01360438  54567-3 -34051-2 0  9999",
        "tle_line2": "2 67113  42.9993 262.7076 0002015 268.1678 183.0517 15.94865190  2120"
      },
      "geometry": {
        "type": "Point",
        "coordinates": [
          147.05234748700377,
          -40.4242696965179
        ]
      }
    },
    {
      "type": "Feature",
      "properties": {
        "norad_id": 67114,
        "name": "STARLINK-36180",
        "group": "last-30-days",
        "lat": -40.89059963018567,
        "lon": 149.29197678040876,
        "alt_km": 292.1306269313509,
        "timestamp": "2025-12-21T20:41:06.760576+00:00",
        "meta_object_name": "STARLINK-36180",
        "meta_object_id": "2025-299N",
        "meta_epoch": "2025-12-21T14:00:01.999872",
        "meta_mean_motion": 15.94965818,
        "meta_eccentricity": 0.00023417,
        "meta_inclination": 42.9995,
        "meta_ra_of_asc_node": 262.7036,
        "meta_arg_of_pericenter": 266.3473,
        "meta_mean_anomaly": 186.5499,
        "meta_ephemeris_type": 0,
        "meta_classification_type": "U",
        "meta_norad_cat_id": 67114,
        "meta_element_set_no": 999,
        "meta_rev_at_epoch": 223,
        "meta_bstar": -0.0034948657,
        "meta_mean_motion_dot": -0.01403498,
        "meta_mean_motion_ddot": 0.00057832158,
        "tle_line1": "1 67114U 25299N   25355.58335648 -.01403498  57832-3 -34949-2 0  9998",
        "tle_line2": "2 67114  42.9995 262.7036 0002341 266.3473 186.5499 15.94965818  2231"
      },
      "geometry": {
        "type": "Point",
        "coordinates": [
          149.29197678040876,
          -40.89059963018567
        ]
      }
    },
    {
      "type": "Feature",
      "properties": {
        "norad_id": 67115,
        "name": "STARLINK-35892",
        "group": "last-30-days",
        "lat": -41.24474468731712,
        "lon": 151.1774053716715,
        "alt_km": 292.0342099712898,
        "timestamp": "2025-12-21T20:41:06.760588+00:00",
        "meta_object_name": "STARLINK-35892",
        "meta_object_id": "2025-299P",
        "meta_epoch": "2025-12-21T14:00:01.999872",
        "meta_mean_motion": 15.95051468,
        "meta_eccentricity": 0.00021783,
        "meta_inclination": 42.9995,
        "meta_ra_of_asc_node": 262.6999,
        "meta_arg_of_pericenter": 264.4068,
        "meta_mean_anomaly": 189.8804,
        "meta_ephemeris_type": 0,
        "meta_classification_type": "U",
        "meta_norad_cat_id": 67115,
        "meta_element_set_no": 999,
        "meta_rev_at_epoch": 212,
        "meta_bstar": -0.0035540186,
        "meta_mean_motion_dot": -0.01433443,
        "meta_mean_motion_ddot": 0.00060166827,
        "tle_line1": "1 67115U 25299P   25355.58335648 -.01433443  60167-3 -35540-2 0  9995",
        "tle_line2": "2 67115  42.9995 262.6999 0002178 264.4068 189.8804 15.95051468  2128"
      },
      "geometry": {
        "type": "Point",
        "coordinates": [
          151.1774053716715,
          -41.24474468731712
        ]
      }
    }
  ]
}